STARLINK-4499           
1 53402U 22097Q   26067.53846626  .00001494  00000+0  11191-3 0  9998
2 53402  53.2177 129.2910 0001508  89.4637 270.6528 15.08842338198343
STARLINK-4507           
1 53403U 22097R   26067.45112754  .00002468  00000+0  17301-3 0  9999
2 53403  53.2169 130.0256 0001016  98.1075 262.0033 15.08852103198320
STARLINK-4509           
1 53404U 22097S   26067.52193651  .00000699  00000+0  61979-4 0  9998
2 53404  53.2164 119.2964 0001283  90.5461 269.5678 15.08837981198472
STARLINK-4510           
1 53405U 22097T   26067.46855049 -.00000018  00000+0  16927-4 0  9997
2 53405  53.2169 129.6038 0001096  87.1331 272.9786 15.08834717198332
STARLINK-4533           
1 53406U 22097U   26067.44369027  .00001617  00000+0  11963-3 0  9991
2 53406  53.2170 119.7154 0002174 101.0312 259.0925 15.08856569198461
STARLINK-4491           
1 53408U 22097W   26067.52098885  .00000331  00000+0  38889-4 0  9992
2 53408  53.2166 119.3729 0000328  65.8502 294.2524 15.08835932198477
STARLINK-4490           
1 53409U 22097X   26067.51456289  .00001151  00000+0  90362-4 0  9993
2 53409  53.2165 109.5907 0001497  82.0957 278.0205 15.08848788198614
STARLINK-4492           
1 53410U 22097Y   26067.51730079  .00001404  00000+0  10627-3 0  9993
2 53410  53.2173 119.3849 0001359  94.2280 265.8868 15.08842722198475
STARLINK-4497           
1 53411U 22097Z   26067.52466902  .00000150  00000+0  27513-4 0  9996
2 53411  53.2169 119.3516 0001263  88.7840 271.3297 15.08835599198478
STARLINK-4496           
1 53412U 22097AA  26067.50627630 -.00000157  00000+0  82480-5 0  9995
2 53412  53.2156 119.4318 0001145 101.4142 258.6979 15.08837184198470
STARLINK-4500           
1 53413U 22097AB  26067.51362179  .00000873  00000+0  72920-4 0  9992
2 53413  53.2166 119.4009 0001328  85.7628 274.3515 15.08843788198473
STARLINK-4304           
1 53414U 22097AC  26067.43634837 -.00000197  00000+0  57079-5 0  9996
2 53414  53.2163 119.7462 0001274  81.2775 278.8362 15.08835207198455
STARLINK-4479           
1 53415U 22097AD  26067.36642458 -.00000294  00000+0 -39551-6 0  9992
2 53415  53.2162 120.0564 0001163  89.3329 270.7796 15.08837781198422
STARLINK-4480           
1 53416U 22097AE  26067.41793961  .00000319  00000+0  38150-4 0  9993
2 53416  53.2162 119.7794 0001431  90.4524 269.6633 15.08840405198436
STARLINK-4484           
1 53417U 22097AF  26067.42898304  .00002761  00000+0  19147-3 0  9999
2 53417  53.2160 119.7809 0001438 102.3215 257.7938 15.08845567198439
STARLINK-4481           
1 53418U 22097AG  26067.38937576 -.00000372  00000+0 -52680-5 0  9999
2 53418  53.2160 109.5240 0001416  92.7057 267.4097 15.08834271198601
STARLINK-4476           
1 53419U 22097AH  26067.42530690 -.00000491  00000+0 -12777-4 0  9995
2 53419  53.2177 119.7959 0001287  91.7695 268.3444 15.08837642198435
