[{"OBJECT_NAME":"STARLINK-4499","OBJECT_ID":"2022-097Q","EPOCH":"2026-03-08T12:55:23.484864","MEAN_MOTION":15.08842338,"ECCENTRICITY":0.0001508,"INCLINATION":53.2177,"RA_OF_ASC_NODE":129.291,"ARG_OF_PERICENTER":89.4637,"MEAN_ANOMALY":270.6528,"EPHEMERIS_TYPE":0,"CLASSIFICATION_TYPE":"U","NORAD_CAT_ID":53402,"ELEMENT_SET_NO":999,"REV_AT_EPOCH":19834,"BSTAR":0.00011191,"MEAN_MOTION_DOT":1.494e-5,"MEAN_MOTION_DDOT":0},{"OBJECT_NAME":"STARLINK-4507","OBJECT_ID":"2022-097R","EPOCH":"2026-03-08T10:49:37.419456","MEAN_MOTION":15.08852103,"ECCENTRICITY":0.0001016,"INCLINATION":53.2169,"RA_OF_ASC_NODE":130.0256,"ARG_OF_PERICENTER":98.1075,"MEAN_ANOMALY":262.0033,"EPHEMERIS_TYPE":0,"CLASSIFICATION_TYPE":"U","NORAD_CAT_ID":53403,"ELEMENT_SET_NO":999,"REV_AT_EPOCH":19832,"BSTAR":0.00017301,"MEAN_MOTION_DOT":2.468e-5,"MEAN_MOTION_DDOT":0},{"OBJECT_NAME":"STARLINK-4509","OBJECT_ID":"2022-097S","EPOCH":"2026-03-08T12:31:35.314464","MEAN_MOTION":15.08837981,"ECCENTRICITY":0.0001283,"INCLINATION":53.2164,"RA_OF_ASC_NODE":119.2964,"ARG_OF_PERICENTER":90.5461,"MEAN_ANOMALY":269.5678,"EPHEMERIS_TYPE":0,"CLASSIFICATION_TYPE":"U","NORAD_CAT_ID":53404,"ELEMENT_SET_NO":999,"REV_AT_EPOCH":19847,"BSTAR":6.1979e-5,"MEAN_MOTION_DOT":6.99e-6,"MEAN_MOTION_DDOT":0},{"OBJECT_NAME":"STARLINK-4510","OBJECT_ID":"2022-097T","EPOCH":"2026-03-08T11:14:42.762336","MEAN_MOTION":15.08834717,"ECCENTRICITY":0.0001096,"INCLINATION":53.2169,"RA_OF_ASC_NODE":129.6038,"ARG_OF_PERICENTER":87.1331,"MEAN_ANOMALY":272.9786,"EPHEMERIS_TYPE":0,"CLASSIFICATION_TYPE":"U","NORAD_CAT_ID":53405,"ELEMENT_SET_NO":999,"REV_AT_EPOCH":19833,"BSTAR":1.6927e-5,"MEAN_MOTION_DOT":-1.8e-7,"MEAN_MOTION_DDOT":0},{"OBJECT_NAME":"STARLINK-4533","OBJECT_ID":"2022-097U","EPOCH":"2026-03-08T10:38:54.839328","MEAN_MOTION":15.08856569,"ECCENTRICITY":0.0002174,"INCLINATION":53.217,"RA_OF_ASC_NODE":119.7154,"ARG_OF_PERICENTER":101.0312,"MEAN_ANOMALY":259.0925,"EPHEMERIS_TYPE":0,"CLASSIFICATION_TYPE":"U","NORAD_CAT_ID":53406,"ELEMENT_SET_NO":999,"REV_AT_EPOCH":19846,"BSTAR":0.00011963,"MEAN_MOTION_DOT":1.617e-5,"MEAN_MOTION_DDOT":0},{"OBJECT_NAME":"STARLINK-4491","OBJECT_ID":"2022-097W","EPOCH":"2026-03-08T12:30:13.436640","MEAN_MOTION":15.08835932,"ECCENTRICITY":3.28e-5,"INCLINATION":53.2166,"RA_OF_ASC_NODE":119.3729,"ARG_OF_PERICENTER":65.8502,"MEAN_ANOMALY":294.2524,"EPHEMERIS_TYPE":0,"CLASSIFICATION_TYPE":"U","NORAD_CAT_ID":53408,"ELEMENT_SET_NO":999,"REV_AT_EPOCH":19847,"BSTAR":3.8889e-5,"MEAN_MOTION_DOT":3.31e-6,"MEAN_MOTION_DDOT":0},{"OBJECT_NAME":"STARLINK-4490","OBJECT_ID":"2022-097X","EPOCH":"2026-03-08T12:20:58.233696","MEAN_MOTION":15.08848788,"ECCENTRICITY":0.0001497,"INCLINATION":53.2165,"RA_OF_ASC_NODE":109.5907,"ARG_OF_PERICENTER":82.0957,"MEAN_ANOMALY":278.0205,"EPHEMERIS_TYPE":0,"CLASSIFICATION_TYPE":"U","NORAD_CAT_ID":53409,"ELEMENT_SET_NO":999,"REV_AT_EPOCH":19861,"BSTAR":9.0362e-5,"MEAN_MOTION_DOT":1.151e-5,"MEAN_MOTION_DDOT":0},{"OBJECT_NAME":"STARLINK-4492","OBJECT_ID":"2022-097Y","EPOCH":"2026-03-08T12:24:54.788256","MEAN_MOTION":15.08842722,"ECCENTRICITY":0.0001359,"INCLINATION":53.2173,"RA_OF_ASC_NODE":119.3849,"ARG_OF_PERICENTER":94.228,"MEAN_ANOMALY":265.8868,"EPHEMERIS_TYPE":0,"CLASSIFICATION_TYPE":"U","NORAD_CAT_ID":53410,"ELEMENT_SET_NO":999,"REV_AT_EPOCH":19847,"BSTAR":0.00010627,"MEAN_MOTION_DOT":1.404e-5,"MEAN_MOTION_DDOT":0},{"OBJECT_NAME":"STARLINK-4497","OBJECT_ID":"2022-097Z","EPOCH":"2026-03-08T12:35:31.403328","MEAN_MOTION":15.08835599,"ECCENTRICITY":0.0001263,"INCLINATION":53.2169,"RA_OF_ASC_NODE":119.3516,"ARG_OF_PERICENTER":88.784,"MEAN_ANOMALY":271.3297,"EPHEMERIS_TYPE":0,"CLASSIFICATION_TYPE":"U","NORAD_CAT_ID":53411,"ELEMENT_SET_NO":999,"REV_AT_EPOCH":19847,"BSTAR":2.7513e-5,"MEAN_MOTION_DOT":1.5e-6,"MEAN_MOTION_DDOT":0},{"OBJECT_NAME":"STARLINK-4496","OBJECT_ID":"2022-097AA","EPOCH":"2026-03-08T12:09:02.272320","MEAN_MOTION":15.08837184,"ECCENTRICITY":0.0001145,"INCLINATION":53.2156,"RA_OF_ASC_NODE":119.4318,"ARG_OF_PERICENTER":101.4142,"MEAN_ANOMALY":258.6979,"EPHEMERIS_TYPE":0,"CLASSIFICATION_TYPE":"U","NORAD_CAT_ID":53412,"ELEMENT_SET_NO":999,"REV_AT_EPOCH":19847,"BSTAR":8.248e-6,"MEAN_MOTION_DOT":-1.57e-6,"MEAN_MOTION_DDOT":0},{"OBJECT_NAME":"STARLINK-4500","OBJECT_ID":"2022-097AB","EPOCH":"2026-03-08T12:19:36.922656","MEAN_MOTION":15.08843788,"ECCENTRICITY":0.0001328,"INCLINATION":53.2166,"RA_OF_ASC_NODE":119.4009,"ARG_OF_PERICENTER":85.7628,"MEAN_ANOMALY":274.3515,"EPHEMERIS_TYPE":0,"CLASSIFICATION_TYPE":"U","NORAD_CAT_ID":53413,"ELEMENT_SET_NO":999,"REV_AT_EPOCH":19847,"BSTAR":7.292e-5,"MEAN_MOTION_DOT":8.73e-6,"MEAN_MOTION_DDOT":0},{"OBJECT_NAME":"STARLINK-4304","OBJECT_ID":"2022-097AC","EPOCH":"2026-03-08T10:28:20.499168","MEAN_MOTION":15.08835207,"ECCENTRICITY":0.0001274,"INCLINATION":53.2163,"RA_OF_ASC_NODE":119.7462,"ARG_OF_PERICENTER":81.2775,"MEAN_ANOMALY":278.8362,"EPHEMERIS_TYPE":0,"CLASSIFICATION_TYPE":"U","NORAD_CAT_ID":53414,"ELEMENT_SET_NO":999,"REV_AT_EPOCH":19845,"BSTAR":5.7079e-6,"MEAN_MOTION_DOT":-1.97e-6,"MEAN_MOTION_DDOT":0},{"OBJECT_NAME":"STARLINK-4479","OBJECT_ID":"2022-097AD","EPOCH":"2026-03-08T08:47:39.083712","MEAN_MOTION":15.08837781,"ECCENTRICITY":0.0001163,"INCLINATION":53.2162,"RA_OF_ASC_NODE":120.0564,"ARG_OF_PERICENTER":89.3329,"MEAN_ANOMALY":270.7796,"EPHEMERIS_TYPE":0,"CLASSIFICATION_TYPE":"U","NORAD_CAT_ID":53415,"ELEMENT_SET_NO":999,"REV_AT_EPOCH":19842,"BSTAR":-3.9551e-7,"MEAN_MOTION_DOT":-2.94e-6,"MEAN_MOTION_DDOT":0},{"OBJECT_NAME":"STARLINK-4480","OBJECT_ID":"2022-097AE","EPOCH":"2026-03-08T10:01:49.982304","MEAN_MOTION":15.08840405,"ECCENTRICITY":0.0001431,"INCLINATION":53.2162,"RA_OF_ASC_NODE":119.7794,"ARG_OF_PERICENTER":90.4524,"MEAN_ANOMALY":269.6633,"EPHEMERIS_TYPE":0,"CLASSIFICATION_TYPE":"U","NORAD_CAT_ID":53416,"ELEMENT_SET_NO":999,"REV_AT_EPOCH":19843,"BSTAR":3.815e-5,"MEAN_MOTION_DOT":3.19e-6,"MEAN_MOTION_DDOT":0},{"OBJECT_NAME":"STARLINK-4484","OBJECT_ID":"2022-097AF","EPOCH":"2026-03-08T10:17:44.134656","MEAN_MOTION":15.08845567,"ECCENTRICITY":0.0001438,"INCLINATION":53.216,"RA_OF_ASC_NODE":119.7809,"ARG_OF_PERICENTER":102.3215,"MEAN_ANOMALY":257.7938,"EPHEMERIS_TYPE":0,"CLASSIFICATION_TYPE":"U","NORAD_CAT_ID":53417,"ELEMENT_SET_NO":999,"REV_AT_EPOCH":19843,"BSTAR":0.00019147,"MEAN_MOTION_DOT":2.761e-5,"MEAN_MOTION_DDOT":0},{"OBJECT_NAME":"STARLINK-4481","OBJECT_ID":"2022-097AG","EPOCH":"2026-03-08T09:20:42.065664","MEAN_MOTION":15.08834271,"ECCENTRICITY":0.0001416,"INCLINATION":53.216,"RA_OF_ASC_NODE":109.524,"ARG_OF_PERICENTER":92.7057,"MEAN_ANOMALY":267.4097,"EPHEMERIS_TYPE":0,"CLASSIFICATION_TYPE":"U","NORAD_CAT_ID":53418,"ELEMENT_SET_NO":999,"REV_AT_EPOCH":19860,"BSTAR":-5.268e-6,"MEAN_MOTION_DOT":-3.72e-6,"MEAN_MOTION_DDOT":0},{"OBJECT_NAME":"STARLINK-4476","OBJECT_ID":"2022-097AH","EPOCH":"2026-03-08T10:12:26.516160","MEAN_MOTION":15.08837642,"ECCENTRICITY":0.0001287,"INCLINATION":53.2177,"RA_OF_ASC_NODE":119.7959,"ARG_OF_PERICENTER":91.7695,"MEAN_ANOMALY":268.3444,"EPHEMERIS_TYPE":0,"CLASSIFICATION_TYPE":"U","NORAD_CAT_ID":53419,"ELEMENT_SET_NO":999,"REV_AT_EPOCH":19843,"BSTAR":-1.2777e-5,"MEAN_MOTION_DOT":-4.91e-6,"MEAN_MOTION_DDOT":0}]
